STARLINK-1505           
1 45783U 20038BF  23217.07484923  .00018469  00000+0  12561-2 0  9996
2 45783  53.0530 130.6276 0001485 100.1054 260.0102 15.06382713174851
STARLINK-1510           
1 45784U 20038BG  23217.24808382  .00007461  00000+0  51939-3 0  9998
2 45784  53.0540 129.8488 0001226  86.7972 273.3157 15.06387448174878
STARLINK-1512           
1 45785U 20038BH  23217.22965548  .00026981  00000+0  18241-2 0  9991
2 45785  53.0537 129.9325 0001295  95.2831 264.8306 15.06383764174879
STARLINK-1513           
1 45786U 20038BJ  23217.08220704  .00020524  00000+0  13933-2 0  9994
2 45786  53.0516 130.5955 0000802 130.4582 229.6477 15.06384084174854
STARLINK-1517           
1 45787U 20038BK  23217.22228132  .00009115  00000+0  63022-3 0  9992
2 45787  53.0532 129.9681 0001491  78.3927 281.7229 15.06389440174876
SKYSAT-C14              
1 45788U 20038BL  23216.03995523  .00027065  00000+0  55361-3 0  9997
2 45788  52.9825 128.6953 0012037 138.5032 221.6889 15.45883117178852
SKYSAT-C16              
1 45789U 20038BM  23217.32702422  .00043790  00000+0  68560-3 0  9993
2 45789  52.9839 115.3928 0008186 325.8683  34.1798 15.53289840179147
SKYSAT-C15              
1 45790U 20038BN  23217.13243988  .00025203  00000+0  55935-3 0  9992
2 45790  52.9822 123.3442 0004458 126.8212 233.3201 15.43578077179016
GAOFEN 9-03             
1 45794U 20039A   23217.68985347  .00010915  00000+0  45594-3 0  9993
2 45794  97.4316 336.0615 0009631 216.7558 143.3019 15.23765136174246
ZHEDA PIXING 3A         
1 45795U 20039B   23217.64310984  .00020081  00000+0  53983-3 0  9995
2 45795  97.4350 342.6761 0010478 175.0464 185.0886 15.37879619174651
HEAD-5                  
1 45796U 20039C   23217.65184471  .00080641  00000+0  10983-2 0  9997
2 45796  97.4247 348.2420 0006244 177.5307 182.5980 15.57253843175048
BEIDOU-3 G3             
1 45807U 20040A   23217.40804405 -.00000364  00000+0  00000+0 0  9992
2 45807   0.6442 337.9172 0004876   0.3554 232.7779  1.00276749 11584
NAVSTAR 79 (USA 304)    
1 45854U 20041A   23216.71399279 -.00000040  00000+0  00000+0 0  9997
2 45854  55.8554  69.9322 0034727 185.7410 172.6567  2.00564172 23028
GAOFEN DUOMO (GFDM)     
1 45856U 20042A   23217.74032953  .00001380  00000+0  20410-3 0  9995
2 45856  97.9060 291.1485 0011538 227.8920 132.1310 14.76733783166563
BY70-2                  
1 45857U 20042B   23217.79165052  .00024954  00000+0  24330-2 0  9994
2 45857  97.9242 297.9244 0009452 194.2637 165.8316 14.92405843166938
SHIYAN 6 02 (SY-6 02)   
1 45859U 20043A   23217.74769764  .00000404  00000+0  86540-4 0  9999
2 45859  98.1992 224.5344 0131227 252.0056 106.6805 14.59156065164156
APSTAR 6D               
1 45863U 20045A   23216.55270226 -.00000329  00000+0  00000+0 0  9993
2 45863   0.0155  88.0759 0001969  34.2818 163.4681  1.00268949 11344
KOREASAT 116            
1 45920U 20048A   23217.40917719 -.00000373  00000+0  00000+0 0  9999
2 45920   0.0199  74.6703 0000976  64.9044  77.6114  1.00269935 11134
ZINYUAN-3               
1 45939U 20051A   23217.73765933  .00007705  00000+0  34633-3 0  9996
2 45939  97.3977 295.2503 0013842  27.5564 332.6402 15.21323881168253
TIANQI-10               
1 45941U 20051C   23217.77998616  .00027798  00000+0  62785-3 0  9992
2 45941  97.4165 309.4851 0007108 322.5456  37.5295 15.43139918169113
EXPRESS 103             
1 45985U 20053A   23216.79572894 -.00000291  00000+0  00000+0 0  9997
2 45985   0.0139  91.2817 0000242 207.7296  37.0400  1.00269352 11144
EXPRESS 80              
1 45986U 20053B   23216.90776143 -.00000147  00000+0  00000+0 0  9994
2 45986   0.0085  32.7600 0000641 331.1238 356.1002  1.00272442 11143
GAOFEN 9-04             
1 46025U 20054A   23217.75024158  .00010000  00000+0  42090-3 0  9993
2 46025  97.3641 292.5507 0004941  74.8983 285.2800 15.23558018166653
Q-SAT                   
1 46026U 20054B   23217.76852635  .00028205  00000+0  66144-3 0  9996
2 46026  97.3669 300.4253 0010477   0.5809 359.5448 15.41977116167181
STARLINK-1522           
1 46027U 20055A   23216.79747061  .00003025  00000+0  22190-3 0  9992
2 46027  53.0539  61.8713 0001121 112.8772 247.2336 15.06398114165507
STARLINK-1523           
1 46028U 20055B   23217.34299744  .00016436  00000+0  11196-2 0  9998
2 46028  53.0531  59.4227 0001290  86.6798 273.4338 15.06403304165596
STARLINK-1526           
1 46029U 20055C   23217.80004813  .00023338  00000+0  15793-2 0  9997
2 46029  53.0539  57.3726 0001081 101.9233 258.1877 15.06428443165666
STARLINK-1534           
1 46030U 20055D   23216.75693094 -.00000333  00000+0 -34620-5 0  9992
2 46030  53.0556  62.0493 0001566  66.9556 293.1598 15.06398786165505
STARLINK-1544           
1 46031U 20055E   23216.75967051 -.00000504  00000+0 -14925-4 0  9995
2 46031  53.0548  62.0301 0001257  85.1068 275.0064 15.06396517165500
STARLINK-1555           
1 46032U 20055F   23216.79009782  .00002263  00000+0  17079-3 0  9992
2 46032  53.0538  61.9025 0001005 102.3441 257.7660 15.06397944165503
STARLINK-1556           
1 46033U 20055G   23216.83802042  .00019128  00000+0  12997-2 0  9999
2 46033  53.0547  61.6838 0001456 138.1514 221.9586 15.06395283165516
STARLINK-1557           
1 46034U 20055H   23217.77055755  .00021708  00000+0  14706-2 0  9992
2 46034  53.0547  57.4989 0001167  85.1336 274.9786 15.06428140165653
STARLINK-1558           
1 46035U 20055J   23216.78273359  .00019084  00000+0  12968-2 0  9997
2 46035  53.0534  61.9388 0000848  89.5848 270.5238 15.06394656165506
STARLINK-1560           
1 46036U 20055K   23217.76319053  .00020999  00000+0  14237-2 0  9997
2 46036  53.0547  57.5429 0001092  77.5533 282.5578 15.06418716165658
STARLINK-1565           
1 46037U 20055L   23216.89699367  .00006563  00000+0  45907-3 0  9990
2 46037  53.0537  61.4235 0001015  88.5085 271.6020 15.06398844165522
STARLINK-1567           
1 46038U 20055M   23216.84540151  .00021913  00000+0  14857-2 0  9997
2 46038  53.0535  61.6580 0000931 135.3265 224.7799 15.06393096165518
STARLINK-1569           
1 46039U 20055N   23217.78161614  .00021800  00000+0  14767-2 0  9990
2 46039  53.0543  57.4543 0000626  66.8016 293.3039 15.06429881165659
STARLINK-1576           
1 46040U 20055P   23217.74475913  .00023072  00000+0  15620-2 0  9990
2 46040  53.0533  57.6171 0000795  86.2295 273.8785 15.06416835165657
STARLINK-1580           
1 46041U 20055Q   23217.75582503  .00017495  00000+0  11899-2 0  9992
2 46041  53.0513  57.6605 0001154 140.8751 219.2322 15.06417113165653
STARLINK-1581           
1 46042U 20055R   23217.79639188  .00023230  00000+0  15733-2 0  9994
2 46042  53.0541  57.3874 0001324  89.5551 270.5589 15.06399784165665
STARLINK-1582           
1 46043U 20055S   23216.79378121  .00002840  00000+0  20946-3 0  9998
2 46043  53.0542  61.8883 0000892 100.4325 259.6764 15.06399317165506
STARLINK-1584           
1 46044U 20055T   23217.73644716  .00015007  00000+0  10236-2 0  9999
2 46044  53.0543  57.6407 0001127 100.1176 259.9941 15.06422740165659
STARLINK-1591           
1 46045U 20055U   23217.74844627  .00021474  00000+0  14554-2 0  9996
2 46045  53.0543  57.5990 0001127  89.8059 270.3059 15.06418243165659
STARLINK-1524           
1 46047U 20055W   23216.97164099  .00022030  00000+0  14938-2 0  9995
2 46047  53.0542  51.0881 0000945  75.9624 284.1470 15.06386150165672
STARLINK-1527           
1 46048U 20055X   23217.76411082  .00023329  00000+0  15788-2 0  9997
2 46048  53.0544  47.5307 0001183  83.1075 277.0048 15.06425484165793
STARLINK-1530           
1 46049U 20055Y   23217.76042666  .00018313  00000+0  12444-2 0  9999
2 46049  53.0538  47.5431 0001134  59.4880 300.6220 15.06421893165774
STARLINK-1540           
1 46051U 20055AA  23216.86843232  .00014785  00000+0  10098-2 0  9992
2 46051  53.0543  51.5506 0001223  83.6330 276.4798 15.06385429165661
STARLINK-1541           
1 46052U 20055AB  23217.78254221  .00019986  00000+0  13560-2 0  9994
2 46052  53.0541  47.4528 0001486 100.4625 259.6531 15.06422177165798
STARLINK-1543           
1 46053U 20055AC  23217.78622089  .00022882  00000+0  15489-2 0  9997
2 46053  53.0547  47.4298 0001058  88.3626 271.7484 15.06428134165790
STARLINK-1548           
1 46054U 20055AD  23217.79359961  .00025886  00000+0  17488-2 0  9993
2 46054  53.0542  47.3988 0001138  80.4339 279.6778 15.06432501165778
STARLINK-1554           
1 46055U 20055AE  23217.77885673  .00021228  00000+0  14389-2 0  9999
2 46055  53.0546  47.4677 0001235  79.7226 280.3902 15.06421139165776
STARLINK-1561           
1 46056U 20055AF  23217.73820701 -.00004401  00000+0 -22898-4 0  9999
2 46056  53.0373 353.9378 0001275 115.5453 244.5698 15.76729933166510
STARLINK-1564           
1 46058U 20055AH  23216.75048096  .00015539  00000+0  10602-2 0  9991
2 46058  53.0542  52.0844 0001231  85.6328 274.4801 15.06384621165628
STARLINK-1570           
1 46059U 20055AJ  23216.75785439  .00016974  00000+0  11562-2 0  9991
2 46059  53.0547  52.0494 0000867  80.7653 279.3434 15.06383712165622
STARLINK-1572           
1 46060U 20055AK  23217.74936450  .00019700  00000+0  13369-2 0  9991
2 46060  53.0529  47.5932 0001310  57.3644 302.7471 15.06422587165776
STARLINK-1573           
1 46061U 20055AL  23217.74199344  .00022275  00000+0  15084-2 0  9992
2 46061  53.0554  47.6282 0001269  77.0435 283.0696 15.06428790165776
STARLINK-1574           
1 46062U 20055AM  23217.77517115  .00022867  00000+0  15479-2 0  9991
2 46062  53.0546  47.4850 0001209  89.4038 270.7090 15.06427296165778
STARLINK-1577           
1 46063U 20055AN  23217.77148402  .00021342  00000+0  14464-2 0  9991
2 46063  53.0534  47.4960 0001175  74.8370 285.2749 15.06423987165772
STARLINK-1583           
1 46064U 20055AP  23216.74311045  .00010146  00000+0  69900-3 0  9999
2 46064  53.0544  52.1129 0001364  62.6929 297.4199 15.06404151165629
STARLINK-1515           
1 46065U 20055AQ  23217.73185197  .00024494  00000+0  16564-2 0  9995
2 46065  53.0552  27.6773 0001083  76.7233 283.3877 15.06426217166077
